STARLINK-37232          
1 69515U 26133H   26178.16670139  .00112705  00000+0  56849-3 0  9998
2 69515  53.1589 271.9030 0001113  96.2665  49.5144 15.80820881  3462
STARLINK-37323          
1 69516U 26133J   26178.16670139  .00101421  00000+0  51244-3 0  9996
2 69516  53.1593 271.8960 0001286  87.3164  61.6362 15.80827271  3462
STARLINK-37357          
1 69517U 26133K   26178.16670139  .00035973  00000+0  18488-3 0  9998
2 69517  53.1590 271.8689 0001016 108.5370  53.4923 15.80891406  3467
STARLINK-37408          
1 69518U 26133L   26178.16670139  .00090284  00000+0  45694-3 0  9994
2 69518  53.1591 271.8542 0001214  57.0454 111.9954 15.80837440  3460
STARLINK-37570          
1 69519U 26133M   26178.16670139  .00026094  00000+0  13539-3 0  9996
2 69519  53.1595 271.7931 0000704  80.5637 117.6304 15.80866176  3474
STARLINK-37510          
1 69520U 26133N   26178.16670139  .00080193  00000+0  40669-3 0  9992
2 69520  53.1592 271.8279 0000931 101.2152  80.4971 15.80839938  3477
STARLINK-37586          
1 69521U 26133P   26178.16670139 -.00757978  00000+0 -39801-2 0  9992
2 69521  53.1590 271.7169 0000849  87.2009 147.7107 15.81951478  3478
STARLINK-37379          
1 69522U 26133Q   26178.16670139  .00159396  00000+0  79815-3 0  9991
2 69522  53.1597 271.7246 0000667  86.1408 145.0548 15.80822346  3516
STARLINK-37429          
1 69523U 26133R   26178.16670139 -.00001234  00000+0 -27123-5 0  9998
2 69523  53.1596 271.7045 0000904  70.0867 170.6159 15.80881995  3515
STARLINK-37352          
1 69524U 26133S   26178.16670139  .00030766  00000+0  15894-3 0  9999
2 69524  53.1596 271.6727 0000544 111.9066 144.1709 15.80861210  3513
STARLINK-37490          
1 69525U 26133T   26178.16670139 -.00423965  00000+0 -22230-2 0  9990
2 69525  53.1578 271.5761 0000954  99.2043 203.2502 15.81147586  3522
STARLINK-37438          
1 69526U 26133U   26178.16670139  .00086415  00000+0  43796-3 0  9995
2 69526  53.1592 271.6464 0001024  93.8009 175.1579 15.80824691  3520
STARLINK-37484          
1 69527U 26133V   26178.16670139 -.00855451  00000+0 -46411-2 0  9998
2 69527  53.1578 271.5609 0000866  80.9277 228.8819 15.81498897  3521
STARLINK-37523          
1 69528U 26133W   26178.16670139  .00033395  00000+0  17221-3 0  9990
2 69528  53.1581 271.5590 0001177  71.5883 239.2339 15.80855708  3520
STARLINK-37369          
1 69529U 26133X   26178.16670139  .00162463  00000+0  81493-3 0  9992
2 69529  53.1578 271.5337 0000234  79.0350 243.3934 15.80774335  3524
STARLINK-37670          
1 69530U 26133Y   26178.16670139 -.00631782  00000+0 -33678-2 0  9992
2 69530  53.1573 271.4912 0001368  95.0860 248.3022 15.81311531  3521
STARLINK-37897          
1 69531U 26133Z   26178.16670139 -.01398742  00000+0 -75641-2 0  9996
2 69531  53.1573 271.4578 0000883  87.0189 271.9497 15.81963299  3472
STARLINK-37933          
1 69532U 26133AA  26178.16670139 -.01637324  00000+0 -87699-2 0  9995
2 69532  53.1574 271.4119 0000922  54.3221 326.6609 15.82619924  3470
STARLINK-37890          
1 69533U 26133AB  26178.16670139 -.02052428  00000+0 -10281-1 0  9995
2 69533  53.1561 271.3653 0000867  83.0438 320.3951 15.84226310  3472
STARLINK-37407          
1 69534U 26133AC  26178.16670139 -.02132949  00000+0 -10623-1 0  9993
2 69534  53.1556 271.3231 0000830  87.1775 336.0654 15.84481408  3529
STARLINK-37888          
1 69535U 26133AD  26178.16670139 -.01979284  00000+0 -86333-2 0  9996
2 69535  53.1551 271.2699 0001006  62.0434  26.8847 15.86924048  3478
STARLINK-37889          
1 69536U 26133AE  26178.16670139  .00063359  00000+0  32266-3 0  9998
2 69536  53.1596 271.7619 0001133  72.9592 141.5117 15.80841660  3478
2026-134A               
1 69538U 26134A   26178.19976157  .00005882  00000+0  37220-3 0  9995
2 69538  97.7017 248.3407 0014566 233.7861 126.2021 15.09300953  1824
2026-134B               
1 69539U 26134B   26178.19851361  .00005887  00000+0  37089-3 0  9993
2 69539  97.6991 248.3389 0014668 236.4308 123.5520 15.09457796  1814
2026-134C               
1 69540U 26134C   26178.19826567  .00005901  00000+0  37151-3 0  9992
2 69540  97.6998 248.3400 0014098 237.7382 122.2481 15.09489474  1810
2026-134D               
1 69541U 26134D   26178.19780826  .00005923  00000+0  37219-3 0  9999
2 69541  97.7036 248.3460 0015156 237.4273 122.5492 15.09546699  1811
2026-134E               
1 69542U 26134E   26178.19763278  .00005961  00000+0  37435-3 0  9994
2 69542  97.7054 248.3490 0014886 238.1722 121.8058 15.09568886  1813
2026-134F               
1 69543U 26134F   26178.19726818  .00005866  00000+0  36810-3 0  9994
2 69543  97.7008 248.3429 0014163 239.9409 120.0415 15.09614663  1817
2026-134G               
1 69544U 26134G   26178.19660199  .00005911  00000+0  37001-3 0  9998
2 69544  97.7054 248.3500 0014627 240.7678 119.2088 15.09698483  1810
