OBJECT_NAME,OBJECT_ID,EPOCH,MEAN_MOTION,ECCENTRICITY,INCLINATION,RA_OF_ASC_NODE,ARG_OF_PERICENTER,MEAN_ANOMALY,EPHEMERIS_TYPE,CLASSIFICATION_TYPE,NORAD_CAT_ID,ELEMENT_SET_NO,REV_AT_EPOCH,BSTAR,MEAN_MOTION_DOT,MEAN_MOTION_DDOT
STARLINK-37232,2026-133H,2026-06-27T04:00:03.000096,15.80820881,.0001113,53.1589,271.9030,96.2665,49.5144,0,U,69515,999,346,.56849E-3,.112705E-2,0
STARLINK-37323,2026-133J,2026-06-27T04:00:03.000096,15.80827271,.0001286,53.1593,271.8960,87.3164,61.6362,0,U,69516,999,346,.51244E-3,.101421E-2,0
STARLINK-37357,2026-133K,2026-06-27T04:00:03.000096,15.80891406,.0001016,53.1590,271.8689,108.5370,53.4923,0,U,69517,999,346,.18488E-3,.35973E-3,0
STARLINK-37408,2026-133L,2026-06-27T04:00:03.000096,15.80837440,.0001214,53.1591,271.8542,57.0454,111.9954,0,U,69518,999,346,.45694E-3,.90284E-3,0
STARLINK-37570,2026-133M,2026-06-27T04:00:03.000096,15.80866176,.0000704,53.1595,271.7931,80.5637,117.6304,0,U,69519,999,347,.13539E-3,.26094E-3,0
STARLINK-37510,2026-133N,2026-06-27T04:00:03.000096,15.80839938,.0000931,53.1592,271.8279,101.2152,80.4971,0,U,69520,999,347,.40669E-3,.80193E-3,0
STARLINK-37586,2026-133P,2026-06-27T04:00:03.000096,15.81951478,.0000849,53.1590,271.7169,87.2009,147.7107,0,U,69521,999,347,-.39801E-2,-.757978E-2,0
STARLINK-37379,2026-133Q,2026-06-27T04:00:03.000096,15.80822346,.0000667,53.1597,271.7246,86.1408,145.0548,0,U,69522,999,351,.79815E-3,.159396E-2,0
STARLINK-37429,2026-133R,2026-06-27T04:00:03.000096,15.80881995,.0000904,53.1596,271.7045,70.0867,170.6159,0,U,69523,999,351,-.27123E-5,-.1234E-4,0
STARLINK-37352,2026-133S,2026-06-27T04:00:03.000096,15.80861210,.0000544,53.1596,271.6727,111.9066,144.1709,0,U,69524,999,351,.15894E-3,.30766E-3,0
STARLINK-37490,2026-133T,2026-06-27T04:00:03.000096,15.81147586,.0000954,53.1578,271.5761,99.2043,203.2502,0,U,69525,999,352,-.2223E-2,-.423965E-2,0
STARLINK-37438,2026-133U,2026-06-27T04:00:03.000096,15.80824691,.0001024,53.1592,271.6464,93.8009,175.1579,0,U,69526,999,352,.43796E-3,.86415E-3,0
STARLINK-37484,2026-133V,2026-06-27T04:00:03.000096,15.81498897,.0000866,53.1578,271.5609,80.9277,228.8819,0,U,69527,999,352,-.46411E-2,-.855451E-2,0
STARLINK-37523,2026-133W,2026-06-27T04:00:03.000096,15.80855708,.0001177,53.1581,271.5590,71.5883,239.2339,0,U,69528,999,352,.17221E-3,.33395E-3,0
STARLINK-37369,2026-133X,2026-06-27T04:00:03.000096,15.80774335,.0000234,53.1578,271.5337,79.0350,243.3934,0,U,69529,999,352,.81493E-3,.162463E-2,0
STARLINK-37670,2026-133Y,2026-06-27T04:00:03.000096,15.81311531,.0001368,53.1573,271.4912,95.0860,248.3022,0,U,69530,999,352,-.33678E-2,-.631782E-2,0
STARLINK-37897,2026-133Z,2026-06-27T04:00:03.000096,15.81963299,.0000883,53.1573,271.4578,87.0189,271.9497,0,U,69531,999,347,-.75641E-2,-.1398742E-1,0
STARLINK-37933,2026-133AA,2026-06-27T04:00:03.000096,15.82619924,.0000922,53.1574,271.4119,54.3221,326.6609,0,U,69532,999,347,-.87699E-2,-.1637324E-1,0
STARLINK-37890,2026-133AB,2026-06-27T04:00:03.000096,15.84226310,.0000867,53.1561,271.3653,83.0438,320.3951,0,U,69533,999,347,-.10281E-1,-.2052428E-1,0
STARLINK-37407,2026-133AC,2026-06-27T04:00:03.000096,15.84481408,.000083,53.1556,271.3231,87.1775,336.0654,0,U,69534,999,352,-.10623E-1,-.2132949E-1,0
STARLINK-37888,2026-133AD,2026-06-27T04:00:03.000096,15.86924048,.0001006,53.1551,271.2699,62.0434,26.8847,0,U,69535,999,347,-.86333E-2,-.1979284E-1,0
STARLINK-37889,2026-133AE,2026-06-27T04:00:03.000096,15.80841660,.0001133,53.1596,271.7619,72.9592,141.5117,0,U,69536,999,347,.32266E-3,.63359E-3,0
2026-134A,2026-134A,2026-06-27T04:47:39.399648,15.09300953,.0014566,97.7017,248.3407,233.7861,126.2021,0,U,69538,999,182,.3722E-3,.5882E-4,0
2026-134B,2026-134B,2026-06-27T04:45:51.575904,15.09457796,.0014668,97.6991,248.3389,236.4308,123.5520,0,U,69539,999,181,.37089E-3,.5887E-4,0
2026-134C,2026-134C,2026-06-27T04:45:30.153888,15.09489474,.0014098,97.6998,248.3400,237.7382,122.2481,0,U,69540,999,181,.37151E-3,.5901E-4,0
2026-134D,2026-134D,2026-06-27T04:44:50.633664,15.09546699,.0015156,97.7036,248.3460,237.4273,122.5492,0,U,69541,999,181,.37219E-3,.5923E-4,0
2026-134E,2026-134E,2026-06-27T04:44:35.472192,15.09568886,.0014886,97.7054,248.3490,238.1722,121.8058,0,U,69542,999,181,.37435E-3,.5961E-4,0
2026-134F,2026-134F,2026-06-27T04:44:03.970752,15.09614663,.0014163,97.7008,248.3429,239.9409,120.0415,0,U,69543,999,181,.3681E-3,.5866E-4,0
2026-134G,2026-134G,2026-06-27T04:43:06.411936,15.09698483,.0014627,97.7054,248.3500,240.7678,119.2088,0,U,69544,999,181,.37001E-3,.5911E-4,0
